[{"OBJECT_NAME":"STARLINK-2687","OBJECT_ID":"2021-040AQ","EPOCH":"2026-03-10T00:00:02.999808","MEAN_MOTION":15.24260316,"ECCENTRICITY":0.00010712,"INCLINATION":53.1324,"RA_OF_ASC_NODE":189.5777,"ARG_OF_PERICENTER":104.2289,"MEAN_ANOMALY":86.7972,"EPHEMERIS_TYPE":0,"CLASSIFICATION_TYPE":"U","NORAD_CAT_ID":48466,"ELEMENT_SET_NO":999,"REV_AT_EPOCH":574,"BSTAR":0.058006,"MEAN_MOTION_DOT":0.01578852,"MEAN_MOTION_DDOT":0},{"OBJECT_NAME":"CZ-6A DEB","OBJECT_ID":"2024-140WS","EPOCH":"2026-03-09T22:52:03.972864","MEAN_MOTION":15.45783762,"ECCENTRICITY":0.00384783,"INCLINATION":89.2121,"RA_OF_ASC_NODE":294.2866,"ARG_OF_PERICENTER":90.9386,"MEAN_ANOMALY":269.6282,"EPHEMERIS_TYPE":0,"CLASSIFICATION_TYPE":"U","NORAD_CAT_ID":61377,"ELEMENT_SET_NO":999,"REV_AT_EPOCH":8253,"BSTAR":0.0057933589,"MEAN_MOTION_DOT":0.00298236,"MEAN_MOTION_DDOT":0}]
